{
    "week": 295,
    "satellites": [
        {
            "Name": "COSMOS 2485 (747)",
            "Line1": "1 39155U 13019A   24335.33263918 -.00000003  00000+0  00000+0 0  9991",
            "Line2": "2 39155  65.1200  92.5733 0023707 228.3490 131.4295  2.13104401 90263",
            "SatelliteNumber": "39155",
            "Classification": "U",
            "LaunchYear": "13",
            "LaunchNumber": "019",
            "PieceOfLaunch": "A",
            "EpochYear": "24",
            "EpochDay": 335.33263918,
            "FirstDerivativeMeanMotion": -3e-08,
            "SecondDerivativeMeanMotion": "00000+0",
            "BSTAR": "00000+0",
            "SetNumber": "999",
            "Inclination": 65.12,
            "RAAN": 92.5733,
            "Eccentricity": 0.0023707,
            "ArgumentOfPerigee": 228.349,
            "MeanAnomaly": 131.4295,
            "MeanMotion": 2.13104401,
            "RevolutionNumber": "9026"
        },
        {
            "Name": "COSMOS 2492 (754)",
            "Line1": "1 39620U 14012A   24334.81871873 -.00000039  00000+0  00000+0 0  9998",
            "Line2": "2 39620  65.6027 333.0510 0014489 310.8289  49.0717  2.13103258 83217",
            "SatelliteNumber": "39620",
            "Classification": "U",
            "LaunchYear": "14",
            "LaunchNumber": "012",
            "PieceOfLaunch": "A",
            "EpochYear": "24",
            "EpochDay": 334.81871873,
            "FirstDerivativeMeanMotion": -3.9e-07,
            "SecondDerivativeMeanMotion": "00000+0",
            "BSTAR": "00000+0",
            "SetNumber": "999",
            "Inclination": 65.6027,
            "RAAN": 333.051,
            "Eccentricity": 0.0014489,
            "ArgumentOfPerigee": 310.8289,
            "MeanAnomaly": 49.0717,
            "MeanMotion": 2.13103258,
            "RevolutionNumber": "8321"
        },
        {
            "Name": "COSMOS 2500 (755)",
            "Line1": "1 40001U 14032A   24334.99590467 -.00000039  00000+0  00000+0 0  9991",
            "Line2": "2 40001  65.5394 332.8369 0008377 221.5427 138.4190  2.13106051 81432",
            "SatelliteNumber": "40001",
            "Classification": "U",
            "LaunchYear": "14",
            "LaunchNumber": "032",
            "PieceOfLaunch": "A",
            "EpochYear": "24",
            "EpochDay": 334.99590467,
            "FirstDerivativeMeanMotion": -3.9e-07,
            "SecondDerivativeMeanMotion": "00000+0",
            "BSTAR": "00000+0",
            "SetNumber": "999",
            "Inclination": 65.5394,
            "RAAN": 332.8369,
            "Eccentricity": 0.0008377,
            "ArgumentOfPerigee": 221.5427,
            "MeanAnomaly": 138.419,
            "MeanMotion": 2.13106051,
            "RevolutionNumber": "8143"
        },
        {
            "Name": "COSMOS 2501 (702K)",
            "Line1": "1 40315U 14075A   24335.25109263  .00000081  00000+0  00000+0 0  9992",
            "Line2": "2 40315  63.6161 209.9092 0019235 205.1330 154.8716  2.13101467 77835",
            "SatelliteNumber": "40315",
            "Classification": "U",
            "LaunchYear": "14",
            "LaunchNumber": "075",
            "PieceOfLaunch": "A",
            "EpochYear": "24",
            "EpochDay": 335.25109263,
            "FirstDerivativeMeanMotion": 8.1e-07,
            "SecondDerivativeMeanMotion": "00000+0",
            "BSTAR": "00000+0",
            "SetNumber": "999",
            "Inclination": 63.6161,
            "RAAN": 209.9092,
            "Eccentricity": 0.0019235,
            "ArgumentOfPerigee": 205.133,
            "MeanAnomaly": 154.8716,
            "MeanMotion": 2.13101467,
            "RevolutionNumber": "7783"
        },
        {
            "Name": "COSMOS 2514 (751)",
            "Line1": "1 41330U 16008A   24335.23396061 -.00000039  00000+0  00000+0 0  9994",
            "Line2": "2 41330  65.3328 332.2964 0012468 222.1039 137.8242  2.13102685 68604",
            "SatelliteNumber": "41330",
            "Classification": "U",
            "LaunchYear": "16",
            "LaunchNumber": "008",
            "PieceOfLaunch": "A",
            "EpochYear": "24",
            "EpochDay": 335.23396061,
            "FirstDerivativeMeanMotion": -3.9e-07,
            "SecondDerivativeMeanMotion": "00000+0",
            "BSTAR": "00000+0",
            "SetNumber": "999",
            "Inclination": 65.3328,
            "RAAN": 332.2964,
            "Eccentricity": 0.0012468,
            "ArgumentOfPerigee": 222.1039,
            "MeanAnomaly": 137.8242,
            "MeanMotion": 2.13102685,
            "RevolutionNumber": "6860"
        },
        {
            "Name": "COSMOS 2522 (752)",
            "Line1": "1 42939U 17055A   24335.07375363  .00000079  00000+0  00000+0 0  9990",
            "Line2": "2 42939  64.0774 211.1014 0006372 231.7860 128.2539  2.13102049 55958",
            "SatelliteNumber": "42939",
            "Classification": "U",
            "LaunchYear": "17",
            "LaunchNumber": "055",
            "PieceOfLaunch": "A",
            "EpochYear": "24",
            "EpochDay": 335.07375363,
            "FirstDerivativeMeanMotion": 7.9e-07,
            "SecondDerivativeMeanMotion": "00000+0",
            "BSTAR": "00000+0",
            "SetNumber": "999",
            "Inclination": 64.0774,
            "RAAN": 211.1014,
            "Eccentricity": 0.0006372,
            "ArgumentOfPerigee": 231.786,
            "MeanAnomaly": 128.2539,
            "MeanMotion": 2.13102049,
            "RevolutionNumber": "5595"
        },
        {
            "Name": "COSMOS 2527 (756)",
            "Line1": "1 43508U 18053A   24335.03313522 -.00000003  00000+0  00000+0 0  9995",
            "Line2": "2 43508  65.2794  92.7702 0008502 220.6965 139.2208  2.13102289 50252",
            "SatelliteNumber": "43508",
            "Classification": "U",
            "LaunchYear": "18",
            "LaunchNumber": "053",
            "PieceOfLaunch": "A",
            "EpochYear": "24",
            "EpochDay": 335.03313522,
            "FirstDerivativeMeanMotion": -3e-08,
            "SecondDerivativeMeanMotion": "00000+0",
            "BSTAR": "00000+0",
            "SetNumber": "999",
            "Inclination": 65.2794,
            "RAAN": 92.7702,
            "Eccentricity": 0.0008502,
            "ArgumentOfPerigee": 220.6965,
            "MeanAnomaly": 139.2208,
            "MeanMotion": 2.13102289,
            "RevolutionNumber": "5025"
        },
        {
            "Name": "COSMOS 2529 (757)",
            "Line1": "1 43687U 18086A   24335.13187231  .00000079  00000+0  00000+0 0  9998",
            "Line2": "2 43687  64.2930 211.6568 0007565 260.6903  99.3214  2.13102060 47264",
            "SatelliteNumber": "43687",
            "Classification": "U",
            "LaunchYear": "18",
            "LaunchNumber": "086",
            "PieceOfLaunch": "A",
            "EpochYear": "24",
            "EpochDay": 335.13187231,
            "FirstDerivativeMeanMotion": 7.9e-07,
            "SecondDerivativeMeanMotion": "00000+0",
            "BSTAR": "00000+0",
            "SetNumber": "999",
            "Inclination": 64.293,
            "RAAN": 211.6568,
            "Eccentricity": 0.0007565,
            "ArgumentOfPerigee": 260.6903,
            "MeanAnomaly": 99.3214,
            "MeanMotion": 2.1310206,
            "RevolutionNumber": "4726"
        },
        {
            "Name": "COSMOS 2534 (758)",
            "Line1": "1 44299U 19030A   24335.86352155  .00000081  00000+0  00000+0 0  9990",
            "Line2": "2 44299  64.3659 211.6012 0009751 287.3170  48.2268  2.13102192 42913",
            "SatelliteNumber": "44299",
            "Classification": "U",
            "LaunchYear": "19",
            "LaunchNumber": "030",
            "PieceOfLaunch": "A",
            "EpochYear": "24",
            "EpochDay": 335.86352155,
            "FirstDerivativeMeanMotion": 8.1e-07,
            "SecondDerivativeMeanMotion": "00000+0",
            "BSTAR": "00000+0",
            "SetNumber": "999",
            "Inclination": 64.3659,
            "RAAN": 211.6012,
            "Eccentricity": 0.0009751,
            "ArgumentOfPerigee": 287.317,
            "MeanAnomaly": 48.2268,
            "MeanMotion": 2.13102192,
            "RevolutionNumber": "4291"
        },
        {
            "Name": "COSMOS 2544 (759)",
            "Line1": "1 44850U 19088A   24334.97732862 -.00000004  00000+0  00000+0 0  9990",
            "Line2": "2 44850  65.2663  92.6059 0012956 248.4871 111.3557  2.13102069 38692",
            "SatelliteNumber": "44850",
            "Classification": "U",
            "LaunchYear": "19",
            "LaunchNumber": "088",
            "PieceOfLaunch": "A",
            "EpochYear": "24",
            "EpochDay": 334.97732862,
            "FirstDerivativeMeanMotion": -4e-08,
            "SecondDerivativeMeanMotion": "00000+0",
            "BSTAR": "00000+0",
            "SetNumber": "999",
            "Inclination": 65.2663,
            "RAAN": 92.6059,
            "Eccentricity": 0.0012956,
            "ArgumentOfPerigee": 248.4871,
            "MeanAnomaly": 111.3557,
            "MeanMotion": 2.13102069,
            "RevolutionNumber": "3869"
        }
    ]
}